{"type": "FeatureCollection", "features": [ {"type": "Feature", "properties": {"norad_id": 45807, "name": "BEIDOU-3 G3 (C61)", "group": "gnss", "lat": -0.6866071738672839, "lon": -94.00678603738902, "alt_km": 35796.83228457335, "timestamp": "2025-12-27T03:58:44.399023+00:00", "meta": {"OBJECT_NAME": "BEIDOU-3 G3 (C61)", "OBJECT_ID": "2020-040A", "EPOCH": "2025-12-26T15:16:11.754624", "MEAN_MOTION": 1.00266662, "ECCENTRICITY": 0.00065884, "INCLINATION": 2.0227, "RA_OF_ASC_NODE": 66.6979, "ARG_OF_PERICENTER": 308.5345, "MEAN_ANOMALY": 59.7005, "EPHEMERIS_TYPE": 0, "CLASSIFICATION_TYPE": "U", "NORAD_CAT_ID": 45807, "ELEMENT_SET_NO": 999, "REV_AT_EPOCH": 2034, "BSTAR": 0, "MEAN_MOTION_DOT": -3.32e-06, "MEAN_MOTION_DDOT": 0}, "tle": {"line1": "1 45807U 20040A   25360.63624716 -.00000332  00000+0  00000+0 0  9998", "line2": "2 45807   2.0227  66.6979 0006588 308.5345  59.7005  1.00266662 20341"}}, "geometry": {"type": "Point", "coordinates": [-94.00678603738902, -0.6866071738672839]}}, {"type": "Feature", "properties": {"norad_id": 45854, "name": "GPS BIII-3  (PRN 23)", "group": "gnss", "lat": -31.51869608415445, "lon": 11.739853171183002, "alt_km": 20259.55964981407, "timestamp": "2025-12-27T03:58:44.399035+00:00", "meta": {"OBJECT_NAME": "GPS BIII-3  (PRN 23)", "OBJECT_ID": "2020-041A", "EPOCH": "2025-12-26T05:40:05.983104", "MEAN_MOTION": 2.00561528, "ECCENTRICITY": 0.0060682, "INCLINATION": 56.556, "RA_OF_ASC_NODE": 35.6606, "ARG_OF_PERICENTER": 203.8008, "MEAN_ANOMALY": 165.623, "EPHEMERIS_TYPE": 0, "CLASSIFICATION_TYPE": "U", "NORAD_CAT_ID": 45854, "ELEMENT_SET_NO": 999, "REV_AT_EPOCH": 4057, "BSTAR": 0, "MEAN_MOTION_DOT": -5e-07, "MEAN_MOTION_DDOT": 0}, "tle": {"line1": "1 45854U 20041A   25360.23618036 -.00000050  00000+0  00000+0 0  9992", "line2": "2 45854  56.5560  35.6606 0060682 203.8008 165.6230  2.00561528 40572"}}, "geometry": {"type": "Point", "coordinates": [11.739853171183002, -31.51869608415445]}}, {"type": "Feature", "properties": {"norad_id": 46114, "name": "GALAXY 30 (WAAS/PRN 135)", "group": "gnss", "lat": 0.013751921693385004, "lon": 30.599778236299557, "alt_km": 35790.44339944109, "timestamp": "2025-12-27T03:58:44.399047+00:00", "meta": {"OBJECT_NAME": "GALAXY 30 (WAAS/PRN 135)", "OBJECT_ID": "2020-056C", "EPOCH": "2025-12-26T13:07:40.743840", "MEAN_MOTION": 1.0027099, "ECCENTRICITY": 0.0002392, "INCLINATION": 0.0083, "RA_OF_ASC_NODE": 313.2552, "ARG_OF_PERICENTER": 322.9444, "MEAN_ANOMALY": 251.0088, "EPHEMERIS_TYPE": 0, "CLASSIFICATION_TYPE": "U", "NORAD_CAT_ID": 46114, "ELEMENT_SET_NO": 999, "REV_AT_EPOCH": 1956, "BSTAR": 0, "MEAN_MOTION_DOT": 5.9e-07, "MEAN_MOTION_DDOT": 0}, "tle": {"line1": "1 46114U 20056C   25360.54699935  .00000059  00000+0  00000+0 0  9997", "line2": "2 46114   0.0083 313.2552 0002392 322.9444 251.0088  1.00270990 19567"}}, "geometry": {"type": "Point", "coordinates": [30.599778236299557, 0.013751921693385004]}}, {"type": "Feature", "properties": {"norad_id": 46805, "name": "COSMOS 2547 (705K)", "group": "gnss", "lat": -19.628620089122027, "lon": -171.5430899299926, "alt_km": 19138.4881774948, "timestamp": "2025-12-27T03:58:44.399058+00:00", "meta": {"OBJECT_NAME": "COSMOS 2547 (705K)", "OBJECT_ID": "2020-075A", "EPOCH": "2025-12-26T06:08:16.586592", "MEAN_MOTION": 2.13100169, "ECCENTRICITY": 0.0006102, "INCLINATION": 64.597, "RA_OF_ASC_NODE": 198.2449, "ARG_OF_PERICENTER": 227.5129, "MEAN_ANOMALY": 132.4903, "EPHEMERIS_TYPE": 0, "CLASSIFICATION_TYPE": "U", "NORAD_CAT_ID": 46805, "ELEMENT_SET_NO": 999, "REV_AT_EPOCH": 4022, "BSTAR": 0, "MEAN_MOTION_DOT": 1.12e-06, "MEAN_MOTION_DDOT": 0}, "tle": {"line1": "1 46805U 20075A   25360.25574753  .00000112  00000+0  00000+0 0  9993", "line2": "2 46805  64.5970 198.2449 0006102 227.5129 132.4903  2.13100169 40223"}}, "geometry": {"type": "Point", "coordinates": [-171.5430899299926, -19.628620089122027]}}, {"type": "Feature", "properties": {"norad_id": 46826, "name": "GPS BIII-4  (PRN 14)", "group": "gnss", "lat": -48.27057025053863, "lon": 163.213238668179, "alt_km": 20183.18336554187, "timestamp": "2025-12-27T03:58:44.399068+00:00", "meta": {"OBJECT_NAME": "GPS BIII-4  (PRN 14)", "OBJECT_ID": "2020-078A", "EPOCH": "2025-12-16T01:06:13.902336", "MEAN_MOTION": 2.00566891, "ECCENTRICITY": 0.0064754, "INCLINATION": 54.0144, "RA_OF_ASC_NODE": 218.2068, "ARG_OF_PERICENTER": 203.3802, "MEAN_ANOMALY": 339.3962, "EPHEMERIS_TYPE": 0, "CLASSIFICATION_TYPE": "U", "NORAD_CAT_ID": 46826, "ELEMENT_SET_NO": 999, "REV_AT_EPOCH": 3783, "BSTAR": 0, "MEAN_MOTION_DOT": 6.7e-07, "MEAN_MOTION_DDOT": 0}, "tle": {"line1": "1 46826U 20078A   25350.04599424  .00000067  00000+0  00000+0 0  9996", "line2": "2 46826  54.0144 218.2068 0064754 203.3802 339.3962  2.00566891 37830"}}, "geometry": {"type": "Point", "coordinates": [163.213238668179, -48.27057025053863]}}, {"type": "Feature", "properties": {"norad_id": 48859, "name": "GPS BIII-5  (PRN 11)", "group": "gnss", "lat": 47.40891082040176, "lon": 110.34877687062597, "alt_km": 20207.642604279627, "timestamp": "2025-12-27T03:58:44.399079+00:00", "meta": {"OBJECT_NAME": "GPS BIII-5  (PRN 11)", "OBJECT_ID": "2021-054A", "EPOCH": "2025-12-08T04:14:32.423424", "MEAN_MOTION": 2.00553627, "ECCENTRICITY": 0.0024678, "INCLINATION": 55.2581, "RA_OF_ASC_NODE": 340.1367, "ARG_OF_PERICENTER": 233.3993, "MEAN_ANOMALY": 212.8594, "EPHEMERIS_TYPE": 0, "CLASSIFICATION_TYPE": "U", "NORAD_CAT_ID": 48859, "ELEMENT_SET_NO": 999, "REV_AT_EPOCH": 3292, "BSTAR": 0, "MEAN_MOTION_DOT": -8.6e-07, "MEAN_MOTION_DDOT": 0}, "tle": {"line1": "1 48859U 21054A   25342.17676416 -.00000086  00000+0  00000+0 0  9993", "line2": "2 48859  55.2581 340.1367 0024678 233.3993 212.8594  2.00553627 32922"}}, "geometry": {"type": "Point", "coordinates": [110.34877687062597, 47.40891082040176]}}, {"type": "Feature", "properties": {"norad_id": 49336, "name": "QZS-1R (QZSS/PRN 196)", "group": "gnss", "lat": -11.441497096904156, "lon": -82.34319308576562, "alt_km": 34610.95630349525, "timestamp": "2025-12-27T03:58:44.399089+00:00", "meta": {"OBJECT_NAME": "QZS-1R (QZSS/PRN 196)", "OBJECT_ID": "2021-096A", "EPOCH": "2025-12-24T14:02:51.747360", "MEAN_MOTION": 1.00253394, "ECCENTRICITY": 0.0757125, "INCLINATION": 37.101, "RA_OF_ASC_NODE": 82.185, "ARG_OF_PERICENTER": 271.5387, "MEAN_ANOMALY": 84.3648, "EPHEMERIS_TYPE": 0, "CLASSIFICATION_TYPE": "U", "NORAD_CAT_ID": 49336, "ELEMENT_SET_NO": 999, "REV_AT_EPOCH": 1526, "BSTAR": 0, "MEAN_MOTION_DOT": -2.38e-06, "MEAN_MOTION_DDOT": 0}, "tle": {"line1": "1 49336U 21096A   25358.58532115 -.00000238  00000+0  00000+0 0  9998", "line2": "2 49336  37.1010  82.1850 0757125 271.5387  84.3648  1.00253394 15267"}}, "geometry": {"type": "Point", "coordinates": [-82.34319308576562, -11.441497096904156]}}, {"type": "Feature", "properties": {"norad_id": 49809, "name": "GSAT0223 (GALILEO 27)", "group": "gnss", "lat": 22.150272086098862, "lon": 1.5217244305523907, "alt_km": 23227.87450336982, "timestamp": "2025-12-27T03:58:44.399100+00:00", "meta": {"OBJECT_NAME": "GSAT0223 (GALILEO 27)", "OBJECT_ID": "2021-116A", "EPOCH": "2025-12-22T17:26:14.878176", "MEAN_MOTION": 1.70475871, "ECCENTRICITY": 0.000441, "INCLINATION": 57.2174, "RA_OF_ASC_NODE": 346.4438, "ARG_OF_PERICENTER": 255.815, "MEAN_ANOMALY": 286.3499, "EPHEMERIS_TYPE": 0, "CLASSIFICATION_TYPE": "U", "NORAD_CAT_ID": 49809, "ELEMENT_SET_NO": 999, "REV_AT_EPOCH": 2517, "BSTAR": 0, "MEAN_MOTION_DOT": -6.4e-07, "MEAN_MOTION_DDOT": 0}, "tle": {"line1": "1 49809U 21116A   25356.72656109 -.00000064  00000+0  00000+0 0  9997", "line2": "2 49809  57.2174 346.4438 0004410 255.8150 286.3499  1.70475871 25171"}}, "geometry": {"type": "Point", "coordinates": [1.5217244305523907, 22.150272086098862]}}, {"type": "Feature", "properties": {"norad_id": 49810, "name": "GSAT0224 (GALILEO 28)", "group": "gnss", "lat": 33.30897287182237, "lon": 141.26195985376611, "alt_km": 23223.793267859357, "timestamp": "2025-12-27T03:58:44.399112+00:00", "meta": {"OBJECT_NAME": "GSAT0224 (GALILEO 28)", "OBJECT_ID": "2021-116B", "EPOCH": "2025-12-23T03:00:59.528736", "MEAN_MOTION": 1.70475912, "ECCENTRICITY": 0.00037519, "INCLINATION": 57.2181, "RA_OF_ASC_NODE": 346.4317, "ARG_OF_PERICENTER": 260.8078, "MEAN_ANOMALY": 278.9053, "EPHEMERIS_TYPE": 0, "CLASSIFICATION_TYPE": "U", "NORAD_CAT_ID": 49810, "ELEMENT_SET_NO": 999, "REV_AT_EPOCH": 2520, "BSTAR": 0, "MEAN_MOTION_DOT": -6.3e-07, "MEAN_MOTION_DDOT": 0}, "tle": {"line1": "1 49810U 21116B   25357.12568899 -.00000063  00000+0  00000+0 0  9991", "line2": "2 49810  57.2181 346.4317 0003751 260.8078 278.9053  1.70475912 25202"}}, "geometry": {"type": "Point", "coordinates": [141.26195985376611, 33.30897287182237]}}, {"type": "Feature", "properties": {"norad_id": 52984, "name": "COSMOS 2557 (706K)", "group": "gnss", "lat": -27.81901860184471, "lon": 155.17382115543984, "alt_km": 19120.42416475243, "timestamp": "2025-12-27T03:58:44.399122+00:00", "meta": {"OBJECT_NAME": "COSMOS 2557 (706K)", "OBJECT_ID": "2022-075A", "EPOCH": "2025-12-25T22:50:27.414816", "MEAN_MOTION": 2.13102015, "ECCENTRICITY": 0.00135372, "INCLINATION": 64.4024, "RA_OF_ASC_NODE": 320.5875, "ARG_OF_PERICENTER": 278.4992, "MEAN_ANOMALY": 81.3515, "EPHEMERIS_TYPE": 0, "CLASSIFICATION_TYPE": "U", "NORAD_CAT_ID": 52984, "ELEMENT_SET_NO": 999, "REV_AT_EPOCH": 2702, "BSTAR": 0, "MEAN_MOTION_DOT": -3.5e-07, "MEAN_MOTION_DDOT": 0}, "tle": {"line1": "1 52984U 22075A   25359.95170619 -.00000035  00000+0  00000+0 0  9993", "line2": "2 52984  64.4024 320.5875 0013537 278.4992  81.3515  2.13102015 27029"}}, "geometry": {"type": "Point", "coordinates": [155.17382115543984, -27.81901860184471]}}]}